STARLINK-1199           
1 45201U 20012Z   26068.25932625 -.00002037  00000+0 -58259-4 0  9999
2 45201  53.1569  25.8332 0001623  88.0191 272.0995 15.29352067335099
TEVEL2-1                
1 63217U 25052H   26068.64782323  .00020683  00000+0  70600-3 0  9994
2 63217  97.3991 324.7682 0004767 104.8919 255.2849 15.30341923 54855
